{"type": "FeatureCollection", "features": [{"type": "Feature", "properties": {"norad_id": 66549, "name": "SHIJIAN-28 (SJ-28)", "group": "last-30-days", "lat": -3.6997407496836736, "lon": 142.78016765166393, "alt_km": 35789.48971325051, "timestamp": "2025-12-26T19:22:37.603325+00:00", "meta": {"OBJECT_NAME": "SHIJIAN-28 (SJ-28)", "OBJECT_ID": "2025-277A", "EPOCH": "2025-12-25T13:29:07.948320", "MEAN_MOTION": 1.0026485, "ECCENTRICITY": 9.97e-05, "INCLINATION": 4.9871, "RA_OF_ASC_NODE": 274.7549, "ARG_OF_PERICENTER": 127.1328, "MEAN_ANOMALY": 11.4336, "EPHEMERIS_TYPE": 0, "CLASSIFICATION_TYPE": "U", "NORAD_CAT_ID": 66549, "ELEMENT_SET_NO": 999, "REV_AT_EPOCH": 41, "BSTAR": 0, "MEAN_MOTION_DOT": -3.37e-06, "MEAN_MOTION_DDOT": 0}, "tle": {"line1": "1 66549U 25277A   25359.56189755 -.00000337  00000+0  00000+0 0  9995", "line2": "2 66549   4.9871 274.7549 0000997 127.1328  11.4336  1.00264850   417"}}, "geometry": {"type": "Point", "coordinates": [142.78016765166393, -3.6997407496836736]}}, {"type": "Feature", "properties": {"norad_id": 66550, "name": "CZ-7A R/B", "group": "last-30-days", "lat": 2.4848602441243584, "lon": -88.96537803312353, "alt_km": 18345.819823316797, "timestamp": "2025-12-26T19:22:37.603377+00:00", "meta": {"OBJECT_NAME": "CZ-7A R/B", "OBJECT_ID": "2025-277B", "EPOCH": "2025-12-23T05:53:12.433056", "MEAN_MOTION": 3.27661077, "ECCENTRICITY": 0.66094342, "INCLINATION": 14.3426, "RA_OF_ASC_NODE": 263.9223, "ARG_OF_PERICENTER": 200.4471, "MEAN_ANOMALY": 110.5172, "EPHEMERIS_TYPE": 0, "CLASSIFICATION_TYPE": "U", "NORAD_CAT_ID": 66550, "ELEMENT_SET_NO": 999, "REV_AT_EPOCH": 65, "BSTAR": 0.0068493476, "MEAN_MOTION_DOT": 0.10979967, "MEAN_MOTION_DDOT": 1.8894821e-05}, "tle": {"line1": "1 66550U 25277B   25357.24528279  .10979967  18895-4  68493-2 0  9991", "line2": "2 66550  14.3426 263.9223 6609434 200.4471 110.5172  3.27661077   658"}}, "geometry": {"type": "Point", "coordinates": [-88.96537803312353, 2.4848602441243584]}}, {"type": "Feature", "properties": {"norad_id": 66554, "name": "GLOBAL-33", "group": "last-30-days", "lat": -22.513391630697196, "lon": -51.63391366472813, "alt_km": 474.9150402532059, "timestamp": "2025-12-26T19:22:37.603404+00:00", "meta": {"OBJECT_NAME": "GLOBAL-33", "OBJECT_ID": "2025-267A", "EPOCH": "2025-12-26T07:00:36.918144", "MEAN_MOTION": 15.31789204, "ECCENTRICITY": 0.00049594, "INCLINATION": 42.0213, "RA_OF_ASC_NODE": 338.7502, "ARG_OF_PERICENTER": 185.8962, "MEAN_ANOMALY": 174.1818, "EPHEMERIS_TYPE": 0, "CLASSIFICATION_TYPE": "U", "NORAD_CAT_ID": 66554, "ELEMENT_SET_NO": 999, "REV_AT_EPOCH": 548, "BSTAR": 0.00047882598, "MEAN_MOTION_DOT": 0.00014797, "MEAN_MOTION_DDOT": 0}, "tle": {"line1": "1 66554U 25267A   25360.29209396  .00014797  00000+0  47883-3 0  9994", "line2": "2 66554  42.0213 338.7502 0004959 185.8962 174.1818 15.31789204  5481"}}, "geometry": {"type": "Point", "coordinates": [-51.63391366472813, -22.513391630697196]}}, {"type": "Feature", "properties": {"norad_id": 66557, "name": "STARLINK-35699", "group": "last-30-days", "lat": 12.297173517750888, "lon": -154.40487580279333, "alt_km": 465.2484894370973, "timestamp": "2025-12-26T19:22:37.603418+00:00", "meta": {"OBJECT_NAME": "STARLINK-35699", "OBJECT_ID": "2025-268A", "EPOCH": "2025-12-26T14:00:04.000032", "MEAN_MOTION": 15.33940412, "ECCENTRICITY": 0.0001457, "INCLINATION": 43.0006, "RA_OF_ASC_NODE": 40.4, "ARG_OF_PERICENTER": 268.4604, "MEAN_ANOMALY": 95.2274, "EPHEMERIS_TYPE": 0, "CLASSIFICATION_TYPE": "U", "NORAD_CAT_ID": 66557, "ELEMENT_SET_NO": 999, "REV_AT_EPOCH": 595, "BSTAR": -0.064715, "MEAN_MOTION_DOT": -0.01936734, "MEAN_MOTION_DDOT": 0}, "tle": {"line1": "1 66557U 25268A   25360.58337963 -.01936734  00000+0 -64715-1 0  9990", "line2": "2 66557  43.0006  40.4000 0001457 268.4604  95.2274 15.33940412  5959"}}, "geometry": {"type": "Point", "coordinates": [-154.40487580279333, 12.297173517750888]}}, {"type": "Feature", "properties": {"norad_id": 66558, "name": "STARLINK-35695", "group": "last-30-days", "lat": 0.5917778816381353, "lon": -141.55356287746505, "alt_km": 464.1618453485007, "timestamp": "2025-12-26T19:22:37.603434+00:00", "meta": {"OBJECT_NAME": "STARLINK-35695", "OBJECT_ID": "2025-268B", "EPOCH": "2025-12-26T14:00:04.000032", "MEAN_MOTION": 15.347826, "ECCENTRICITY": 0.00015968, "INCLINATION": 43.0013, "RA_OF_ASC_NODE": 40.3601, "ARG_OF_PERICENTER": 271.2436, "MEAN_ANOMALY": 109.097, "EPHEMERIS_TYPE": 0, "CLASSIFICATION_TYPE": "U", "NORAD_CAT_ID": 66558, "ELEMENT_SET_NO": 999, "REV_AT_EPOCH": 595, "BSTAR": -0.063198824, "MEAN_MOTION_DOT": -0.01942601, "MEAN_MOTION_DDOT": 0}, "tle": {"line1": "1 66558U 25268B   25360.58337963 -.01942601  00000+0 -63199-1 0  9996", "line2": "2 66558  43.0013  40.3601 0001596 271.2436 109.0970 15.34782600  5954"}}, "geometry": {"type": "Point", "coordinates": [-141.55356287746505, 0.5917778816381353]}}, {"type": "Feature", "properties": {"norad_id": 66559, "name": "STARLINK-35419", "group": "last-30-days", "lat": -42.6093206699634, "lon": -60.33693346784347, "alt_km": 451.52824612817403, "timestamp": "2025-12-26T19:22:37.603446+00:00", "meta": {"OBJECT_NAME": "STARLINK-35419", "OBJECT_ID": "2025-268C", "EPOCH": "2025-12-26T14:00:04.000032", "MEAN_MOTION": 15.39920521, "ECCENTRICITY": 0.00015105, "INCLINATION": 43.0005, "RA_OF_ASC_NODE": 40.1657, "ARG_OF_PERICENTER": 289.7986, "MEAN_ANOMALY": 170.552, "EPHEMERIS_TYPE": 0, "CLASSIFICATION_TYPE": "U", "NORAD_CAT_ID": 66559, "ELEMENT_SET_NO": 999, "REV_AT_EPOCH": 601, "BSTAR": -0.053597956, "MEAN_MOTION_DOT": -0.01948739, "MEAN_MOTION_DDOT": 0}, "tle": {"line1": "1 66559U 25268C   25360.58337963 -.01948739  00000+0 -53598-1 0  9997", "line2": "2 66559  43.0005  40.1657 0001510 289.7986 170.5520 15.39920521  6018"}}, "geometry": {"type": "Point", "coordinates": [-60.33693346784347, -42.6093206699634]}}, {"type": "Feature", "properties": {"norad_id": 66560, "name": "STARLINK-35411", "group": "last-30-days", "lat": -42.93213975602958, "lon": -47.81814312947087, "alt_km": 449.9694652865601, "timestamp": "2025-12-26T19:22:37.603457+00:00", "meta": {"OBJECT_NAME": "STARLINK-35411", "OBJECT_ID": "2025-268D", "EPOCH": "2025-12-26T14:00:04.000032", "MEAN_MOTION": 15.40448451, "ECCENTRICITY": 0.00013885, "INCLINATION": 43.0006, "RA_OF_ASC_NODE": 40.1442, "ARG_OF_PERICENTER": 289.9846, "MEAN_ANOMALY": 179.1522, "EPHEMERIS_TYPE": 0, "CLASSIFICATION_TYPE": "U", "NORAD_CAT_ID": 66560, "ELEMENT_SET_NO": 999, "REV_AT_EPOCH": 601, "BSTAR": -0.052434068, "MEAN_MOTION_DOT": -0.01941147, "MEAN_MOTION_DDOT": 0}, "tle": {"line1": "1 66560U 25268D   25360.58337963 -.01941147  00000+0 -52434-1 0  9993", "line2": "2 66560  43.0006  40.1442 0001388 289.9846 179.1522 15.40448451  6019"}}, "geometry": {"type": "Point", "coordinates": [-47.81814312947087, -42.93213975602958]}}, {"type": "Feature", "properties": {"norad_id": 66561, "name": "STARLINK-35305", "group": "last-30-days", "lat": -37.0896275100612, "lon": -15.428775028580064, "alt_km": 444.7131914116544, "timestamp": "2025-12-26T19:22:37.603470+00:00", "meta": {"OBJECT_NAME": "STARLINK-35305", "OBJECT_ID": "2025-268E", "EPOCH": "2025-12-26T14:00:04.000032", "MEAN_MOTION": 15.42131782, "ECCENTRICITY": 0.00013817, "INCLINATION": 43.0006, "RA_OF_ASC_NODE": 40.0853, "ARG_OF_PERICENTER": 297.2225, "MEAN_ANOMALY": 195.955, "EPHEMERIS_TYPE": 0, "CLASSIFICATION_TYPE": "U", "NORAD_CAT_ID": 66561, "ELEMENT_SET_NO": 999, "REV_AT_EPOCH": 589, "BSTAR": -0.050215881, "MEAN_MOTION_DOT": -0.01964529, "MEAN_MOTION_DDOT": 0}, "tle": {"line1": "1 66561U 25268E   25360.58337963 -.01964529  00000+0 -50216-1 0  9999", "line2": "2 66561  43.0006  40.0853 0001381 297.2225 195.9550 15.42131782  5891"}}, "geometry": {"type": "Point", "coordinates": [-15.428775028580064, -37.0896275100612]}}, {"type": "Feature", "properties": {"norad_id": 66562, "name": "STARLINK-35579", "group": "last-30-days", "lat": -41.09240041314071, "lon": -30.547149099113007, "alt_km": 447.2904497276604, "timestamp": "2025-12-26T19:22:37.603482+00:00", "meta": {"OBJECT_NAME": "STARLINK-35579", "OBJECT_ID": "2025-268F", "EPOCH": "2025-12-26T14:00:04.000032", "MEAN_MOTION": 15.4129182, "ECCENTRICITY": 0.00015181, "INCLINATION": 43.0008, "RA_OF_ASC_NODE": 40.1139, "ARG_OF_PERICENTER": 292.8031, "MEAN_ANOMALY": 188.6365, "EPHEMERIS_TYPE": 0, "CLASSIFICATION_TYPE": "U", "NORAD_CAT_ID": 66562, "ELEMENT_SET_NO": 999, "REV_AT_EPOCH": 596, "BSTAR": -0.051486119, "MEAN_MOTION_DOT": -0.01958719, "MEAN_MOTION_DDOT": 0}, "tle": {"line1": "1 66562U 25268F   25360.58337963 -.01958719  00000+0 -51486-1 0  9994", "line2": "2 66562  43.0008  40.1139 0001518 292.8031 188.6365 15.41291820  5960"}}, "geometry": {"type": "Point", "coordinates": [-30.547149099113007, -41.09240041314071]}}, {"type": "Feature", "properties": {"norad_id": 66563, "name": "STARLINK-35437", "group": "last-30-days", "lat": -31.662924230959437, "lon": -2.6775796893599617, "alt_km": 442.0877228268346, "timestamp": "2025-12-26T19:22:37.603492+00:00", "meta": {"OBJECT_NAME": "STARLINK-35437", "OBJECT_ID": "2025-268G", "EPOCH": "2025-12-26T14:00:04.000032", "MEAN_MOTION": 15.42987452, "ECCENTRICITY": 0.00012169, "INCLINATION": 42.9997, "RA_OF_ASC_NODE": 40.0564, "ARG_OF_PERICENTER": 297.8098, "MEAN_ANOMALY": 206.5459, "EPHEMERIS_TYPE": 0, "CLASSIFICATION_TYPE": "U", "NORAD_CAT_ID": 66563, "ELEMENT_SET_NO": 999, "REV_AT_EPOCH": 606, "BSTAR": -0.050016823, "MEAN_MOTION_DOT": -0.02008873, "MEAN_MOTION_DDOT": 0}, "tle": {"line1": "1 66563U 25268G   25360.58337963 -.02008873  00000+0 -50017-1 0  9992", "line2": "2 66563  42.9997  40.0564 0001216 297.8098 206.5459 15.42987452  6060"}}, "geometry": {"type": "Point", "coordinates": [-2.6775796893599617, -31.662924230959437]}}]}